[{"OBJECT_NAME":"IRIDIUM 160","OBJECT_ID":"2018-061A","EPOCH":"2026-03-09T22:03:46.499616","MEAN_MOTION":14.34217171,"ECCENTRICITY":0.00022327,"INCLINATION":86.3914,"RA_OF_ASC_NODE":98.3199,"ARG_OF_PERICENTER":91.5582,"MEAN_ANOMALY":268.587,"EPHEMERIS_TYPE":0,"CLASSIFICATION_TYPE":"U","NORAD_CAT_ID":43569,"ELEMENT_SET_NO":999,"REV_AT_EPOCH":39914,"BSTAR":-1.4041758e-5,"MEAN_MOTION_DOT":-2.0e-7,"MEAN_MOTION_DDOT":0},{"OBJECT_NAME":"NOAA 16 DEB","OBJECT_ID":"2000-055TM","EPOCH":"2026-03-08T23:57:59.745024","MEAN_MOTION":14.31485352,"ECCENTRICITY":0.00218486,"INCLINATION":98.7397,"RA_OF_ASC_NODE":145.7818,"ARG_OF_PERICENTER":356.1985,"MEAN_ANOMALY":3.9028,"EPHEMERIS_TYPE":0,"CLASSIFICATION_TYPE":"U","NORAD_CAT_ID":42417,"ELEMENT_SET_NO":999,"REV_AT_EPOCH":51619,"BSTAR":0.0026913151,"MEAN_MOTION_DOT":7.129e-5,"MEAN_MOTION_DDOT":0}]
